NORAD_CAT_ID,OBJECT_NAME,OBJECT_TYPE,EPOCH,MEAN_MOTION,ECCENTRICITY,INCLINATION,RA_OF_ASC_NODE,ARG_OF_PERICENTER,MEAN_ANOMALY,BSTAR,MEAN_MOTION_DOT,MEAN_MOTION_DDOT,TLE_LINE0,TLE_LINE1,TLE_LINE2,SEMIMAJOR_AXIS,PERIOD,APOGEE,PERIGEE,DECAYED
53538.0,STARLINK-4118,PAYLOAD,2023-11-04 06:56:07,15.08848931,0.0001541,53.217,308.6535,89.8325,270.2844,0.0001357,1.873e-05,0.0,0 STARLINK-4118,1 53538U 22101M   23308.28897906  .00001873  00000-0  13570-3 0  9993,2 53538  53.2170 308.6535 0001541  89.8325 270.2844 15.08848931 67704,6917.853,95.437,540.784,538.652,0.0
53538.0,STARLINK-4118,PAYLOAD,2023-11-05 06:46:54,15.08851049,0.0001833,53.219,304.1949,105.0692,255.0503,0.00033099,4.985e-05,0.0,0 STARLINK-4118,1 53538U 22101M   23309.28257998  .00004985  00000-0  33099-3 0  9990,2 53538  53.2190 304.1949 0001833 105.0692 255.0503 15.08851049 67165,6917.847,95.437,540.98,538.444,0.0
53538.0,STARLINK-4118,PAYLOAD,2023-11-05 16:19:13,15.08846856,0.0001797,53.2179,302.4099,102.3649,257.7544,0.00017039,2.425e-05,0.0,0 STARLINK-4118,1 53538U 22101M   23309.68002073  .00002425  00000-0  17039-3 0  9999,2 53538  53.2179 302.4099 0001797 102.3649 257.7544 15.08846856 67221,6917.859,95.437,540.968,538.481,0.0
53538.0,STARLINK-4118,PAYLOAD,2023-11-06 03:26:55,15.08860288,0.0002001,53.2178,300.3307,116.3168,243.8029,0.00035931,5.438e-05,0.0,0 STARLINK-4118,1 53538U 22101M   23310.14369390  .00005438  00000-0  35931-3 0  9998,2 53538  53.2178 300.3307 0002001 116.3168 243.8029 15.08860288 67295,6917.818,95.436,541.068,538.299,0.0
53538.0,STARLINK-4118,PAYLOAD,2023-11-06 06:37:41,15.08858803,0.0001619,53.2177,299.7362,98.4221,261.6955,0.00032628,4.911e-05,0.0,0 STARLINK-4118,1 53538U 22101M   23310.27617388  .00004911  00000-0  32628-3 0  9990,2 53538  53.2177 299.7362 0001619  98.4221 261.6955 15.08858803 68006,6917.823,95.436,540.808,538.568,0.0
53538.0,STARLINK-4118,PAYLOAD,2023-11-06 16:10:01,15.08834666,0.0001812,53.2181,297.9493,85.9812,274.1388,-8.0582e-05,-1.57e-05,0.0,0 STARLINK-4118,1 53538U 22101M   23310.67362409 -.00001570  00000-0 -80582-4 0  9998,2 53538  53.2181 297.9493 0001812  85.9812 274.1388 15.08834666 67377,6917.897,95.438,541.015,538.508,0.0
53538.0,STARLINK-4118,PAYLOAD,2023-11-07 03:17:45,15.08790329,0.0001269,53.2178,295.8657,88.8695,271.2443,-0.00081944,-0.00013288,0.0,0 STARLINK-4118,1 53538U 22101M   23311.13732741 -.00013288  00000-0 -81944-3 0  9991,2 53538  53.2178 295.8657 0001269  88.8695 271.2443 15.08790329 67444,6918.032,95.441,540.775,539.019,0.0
53538.0,STARLINK-4118,PAYLOAD,2023-11-07 08:03:54,15.08796419,0.0001665,53.2191,294.9751,86.4725,273.6457,-0.00056711,-9.291e-05,0.0,0 STARLINK-4118,1 53538U 22101M   23311.33605187 -.00009291  00000-0 -56711-3 0  9999,2 53538  53.2191 294.9751 0001665  86.4725 273.6457 15.08796419 67472,6918.014,95.44,541.03,538.727,0.0
53538.0,STARLINK-4118,PAYLOAD,2023-11-07 16:00:50,15.08823561,8.68e-05,53.2178,293.4893,90.6289,269.4802,5.8893e-05,6.49e-06,0.0,0 STARLINK-4118,1 53538U 22101M   23311.66724544  .00000649  00000-0  58893-4 0  9994,2 53538  53.2178 293.4893 0000868  90.6289 269.4802 15.08823561 67526,6917.931,95.439,540.396,539.195,0.0
53538.0,STARLINK-4118,PAYLOAD,2023-11-08 03:08:31,15.08847513,0.0001441,53.2183,291.4076,77.2706,282.8447,0.00060698,9.387e-05,0.0,0 STARLINK-4118,1 53538U 22101M   23312.13092256  .00009387  00000-0  60698-3 0  9998,2 53538  53.2183 291.4076 0001441  77.2706 282.8447 15.08847513 67590,6917.857,95.437,540.719,538.726,0.0
53538.0,STARLINK-4118,PAYLOAD,2023-11-08 07:54:40,15.08857389,0.0001549,53.2177,290.5137,72.5009,287.6152,0.00074468,0.00011589,0.0,0 STARLINK-4118,1 53538U 22101M   23312.32963875  .00011589  00000-0  74468-3 0  9990,2 53538  53.2177 290.5137 0001549  72.5009 287.6152 15.08857389 68313,6917.827,95.436,540.764,538.621,0.0
53538.0,STARLINK-4118,PAYLOAD,2023-11-08 15:51:36,15.088545,0.0001106,53.2173,289.029,84.9408,275.171,0.00077692,0.00012103,0.0,0 STARLINK-4118,1 53538U 22101M   23312.66083934  .00012103  00000-0  77692-3 0  9991,2 53538  53.2173 289.0290 0001106  84.9408 275.1710 15.08854500 68360,6917.836,95.437,540.466,538.936,0.0
53538.0,STARLINK-4118,PAYLOAD,2023-11-09 04:34:41,15.08857579,0.0001273,53.2173,286.6512,92.3996,267.7142,0.00053611,8.259e-05,0.0,0 STARLINK-4118,1 53538U 22101M   23313.19075396  .00008259  00000-0  53611-3 0  9995,2 53538  53.2173 286.6512 0001273  92.3996 267.7142 15.08857579 67757,6917.827,95.436,540.572,538.811,0.0
53538.0,STARLINK-4118,PAYLOAD,2023-11-09 06:10:03,15.0886505,0.0001125,53.2171,286.3541,85.0563,275.0557,0.00064213,9.953e-05,0.0,0 STARLINK-4118,1 53538U 22101M   23313.25699065  .00009953  00000-0  64213-3 0  9999,2 53538  53.2171 286.3541 0001125  85.0563 275.0557 15.08865050 68452,6917.804,95.436,540.447,538.891,0.0
53538.0,STARLINK-4118,PAYLOAD,2023-11-09 15:42:22,15.08856554,0.0001169,53.2176,284.5681,77.4401,282.6722,0.0002187,3.196e-05,0.0,0 STARLINK-4118,1 53538U 22101M   23313.65442872  .00003196  00000-0  21870-3 0  9990,2 53538  53.2176 284.5681 0001169  77.4401 282.6722 15.08856554 68510,6917.83,95.437,540.503,538.886,0.0
53538.0,STARLINK-4118,PAYLOAD,2023-11-10 04:25:27,15.08853119,0.0001527,53.2172,282.1866,87.6848,272.4319,-0.00011937,-2.188e-05,0.0,0 STARLINK-4118,1 53538U 22101M   23314.18434549 -.00002188  00000-0 -11937-3 0  9996,2 53538  53.2172 282.1866 0001527  87.6848 272.4319 15.08853119 67906,6917.84,95.437,540.762,538.649,0.0
53538.0,STARLINK-4118,PAYLOAD,2023-11-10 07:36:13,15.08855113,0.0001548,53.2174,281.5904,91.0567,269.0603,-3.2392e-05,-8.04e-06,0.0,0 STARLINK-4118,1 53538U 22101M   23314.31682392 -.00000804  00000-0 -32392-4 0  9994,2 53538  53.2174 281.5904 0001548  91.0567 269.0603 15.08855113 68617,6917.834,95.437,540.77,538.628,0.0
53538.0,STARLINK-4118,PAYLOAD,2023-11-10 15:33:09,15.08848884,0.0001578,53.2172,280.1046,89.1345,270.9828,-4.6123e-05,-1.022e-05,0.0,0 STARLINK-4118,1 53538U 22101M   23314.64802487 -.00001022  00000-0 -46123-4 0  9999,2 53538  53.2172 280.1046 0001578  89.1345 270.9828 15.08848884 68664,6917.853,95.437,540.81,538.627,0.0
53538.0,STARLINK-4118,PAYLOAD,2023-11-11 02:40:51,15.08847293,0.0001563,53.2177,278.0263,84.8831,275.234,3.8111e-05,3.19e-06,0.0,0 STARLINK-4118,1 53538U 22101M   23315.11170554  .00000319  00000-0  38111-4 0  9999,2 53538  53.2177 278.0263 0001563  84.8831 275.2340 15.08847293 68044,6917.858,95.437,540.804,538.642,0.0
53538.0,STARLINK-4118,PAYLOAD,2023-11-11 07:27:00,15.08856043,0.0001593,53.2174,277.1313,98.0904,262.0269,8.405e-05,1.05e-05,0.0,0 STARLINK-4118,1 53538U 22101M   23315.31041968  .00001050  00000-0  84050-4 0  9993,2 53538  53.2174 277.1313 0001593  98.0904 262.0269 15.08856043 68764,6917.831,95.437,540.798,538.594,0.0
53538.0,STARLINK-4118,PAYLOAD,2023-11-12 04:07:02,15.08836247,0.0001613,53.2169,273.2638,85.7454,274.3723,3.9399e-05,3.39e-06,0.0,0 STARLINK-4118,1 53538U 22101M   23316.17155117  .00000339  00000-0  39399-4 0  9995,2 53538  53.2169 273.2638 0001613  85.7454 274.3723 15.08836247 68205,6917.892,95.438,540.873,538.641,0.0
53538.0,STARLINK-4118,PAYLOAD,2023-11-12 21:36:16,15.08836175,0.0001637,53.2173,269.9956,88.5013,271.6167,6.9776e-05,8.23e-06,0.0,0 STARLINK-4118,1 53538U 22101M   23316.90019471  .00000823  00000-0  69776-4 0  9998,2 53538  53.2173 269.9956 0001637  88.5013 271.6167 15.08836175 69004,6917.892,95.438,540.89,538.625,0.0
53538.0,STARLINK-4118,PAYLOAD,2023-11-13 07:08:35,15.08849052,0.0001605,53.2172,268.2096,89.2357,270.882,0.00032401,4.874e-05,0.0,0 STARLINK-4118,1 53538U 22101M   23317.29763048  .00004874  00000-0  32401-3 0  9991,2 53538  53.2172 268.2096 0001605  89.2357 270.8820 15.08849052 68378,6917.853,95.437,540.828,538.607,0.0
53538.0,STARLINK-4118,PAYLOAD,2023-11-14 03:48:36,15.08840382,0.0001624,53.2177,264.3484,88.4956,271.6223,0.00013662,1.887e-05,0.0,0 STARLINK-4118,1 53538U 22101M   23318.15875495  .00001887  00000-0  13662-3 0  9996,2 53538  53.2177 264.3484 0001624  88.4956 271.6223 15.08840382 68506,6917.879,95.438,540.868,538.621,0.0
53538.0,STARLINK-4118,PAYLOAD,2023-11-14 13:20:55,15.08837253,0.0001628,53.2179,262.5629,84.5388,275.5789,4.8585e-05,4.85e-06,0.0,0 STARLINK-4118,1 53538U 22101M   23318.55619668  .00000485  00000-0  48585-4 0  9994,2 53538  53.2179 262.5629 0001628  84.5388 275.5789 15.08837253 69255,6917.889,95.438,540.88,538.628,0.0
53538.0,STARLINK-4118,PAYLOAD,2023-11-15 03:39:23,15.08836302,0.0001695,53.2177,259.8863,97.0561,263.0624,-9.0376e-06,-4.32e-06,0.0,0 STARLINK-4118,1 53538U 22101M   23319.15235842 -.00000432  00000-0 -90376-5 0  9999,2 53538  53.2177 259.8863 0001695  97.0561 263.0624 15.08836302 68655,6917.892,95.438,540.929,538.584,0.0
53538.0,STARLINK-4118,PAYLOAD,2023-11-15 05:14:47,15.08833021,0.0001571,53.2171,259.5884,91.6716,268.4456,-5.7497e-05,-1.203e-05,0.0,0 STARLINK-4118,1 53538U 22101M   23319.21859988 -.00001203  00000-0 -57497-4 0  9992,2 53538  53.2171 259.5884 0001571  91.6716 268.4456 15.08833021 69359,6917.902,95.438,540.854,538.68,0.0
53538.0,STARLINK-4118,PAYLOAD,2023-11-16 03:30:11,15.08843425,0.0002165,53.2181,255.4266,64.5646,295.557,0.0001341,1.847e-05,0.0,0 STARLINK-4118,1 53538U 22101M   23320.14596080  .00001847  00000-0  13410-3 0  9995,2 53538  53.2181 255.4266 0002165  64.5646 295.5570 15.08843425 69492,6917.87,95.437,541.233,538.237,0.0
53538.0,STARLINK-4118,PAYLOAD,2023-11-17 00:10:11,15.08849967,0.0002015,53.2188,251.5602,71.6009,288.5202,0.00026594,3.948e-05,0.0,0 STARLINK-4118,1 53538U 22101M   23321.00707617  .00003948  00000-0  26594-3 0  9992,2 53538  53.2188 251.5602 0002015  71.6009 288.5202 15.08849967 68935,6917.85,95.437,541.109,538.321,0.0
53538.0,STARLINK-4118,PAYLOAD,2023-11-17 19:14:49,15.08839243,0.0001857,53.2176,247.995,77.0013,283.1187,5.3747e-05,5.67e-06,0.0,0 STARLINK-4118,1 53538U 22101M   23321.80196094  .00000567  00000-0  53747-4 0  9996,2 53538  53.2176 247.9950 0001857  77.0013 283.1187 15.08839243 69058,6917.883,95.438,541.032,538.463,0.0
